[{"OBJECT_NAME":"MAKERSAT 0","OBJECT_ID":"2017-073D","EPOCH":"2026-03-09T15:16:53.554944","MEAN_MOTION":15.27797199,"ECCENTRICITY":0.0115258,"INCLINATION":97.4777,"RA_OF_ASC_NODE":310.6155,"ARG_OF_PERICENTER":266.0743,"MEAN_ANOMALY":92.7313,"EPHEMERIS_TYPE":0,"CLASSIFICATION_TYPE":"U","NORAD_CAT_ID":43016,"ELEMENT_SET_NO":999,"REV_AT_EPOCH":45124,"BSTAR":0.0007159,"MEAN_MOTION_DOT":0.00023659,"MEAN_MOTION_DDOT":0},{"OBJECT_NAME":"STARLINK-4303","OBJECT_ID":"2022-101T","EPOCH":"2026-03-09T05:23:41.760096","MEAN_MOTION":15.08836273,"ECCENTRICITY":0.0001366,"INCLINATION":53.2179,"RA_OF_ASC_NODE":66.2102,"ARG_OF_PERICENTER":95.7159,"MEAN_ANOMALY":264.3989,"EPHEMERIS_TYPE":0,"CLASSIFICATION_TYPE":"U","NORAD_CAT_ID":53544,"ELEMENT_SET_NO":999,"REV_AT_EPOCH":19690,"BSTAR":2.7006e-6,"MEAN_MOTION_DOT":-2.45e-6,"MEAN_MOTION_DDOT":0}]
