MAKERSAT 0              
1 43016U 17073D   26068.63673096  .00023659  00000+0  71590-3 0  9993
2 43016  97.4777 310.6155 0115258 266.0743  92.7313 15.27797199451246
STARLINK-4303           
1 53544U 22101T   26068.22478889 -.00000245  00000+0  27006-5 0  9998
2 53544  53.2179  66.2102 0001366  95.7159 264.3989 15.08836273196908
